ONEWEB-0153             
1 48044U 21025C   23309.81191902 -.00000193  00000+0 -56405-3 0  9995
2 48044  87.8989 150.1371 0001433  86.7738 273.3556 13.13469105128262
ONEWEB-0154             
1 48045U 21025D   23309.80979395 -.00000130  00000+0 -39105-3 0  9994
2 48045  87.8999 150.1503 0001467  82.1973 277.9322 13.13468348128224
ONEWEB-0116             
1 48046U 21025E   23309.92831672  .00000170  00000+0  43120-3 0  9997
2 48046  87.8992 150.0948 0001688  74.4495 285.6821 13.13470839128383
ONEWEB-0150             
1 48047U 21025F   23309.82461736 -.00000328  00000+0 -93360-3 0  9995
2 48047  87.8995 150.1409 0001546  88.8143 271.3163 13.13469390128260
ONEWEB-0107             
1 48048U 21025G   23309.82672569 -.00000288  00000+0 -82357-3 0  9993
2 48048  87.8996 150.1389 0001581  97.0262 263.1047 13.13472050128247
ONEWEB-0101             
1 48049U 21025H   23309.94311733  .00000357  00000+0  94150-3 0  9999
2 48049  87.8992 150.1243 0001335  84.3738 275.7543 13.13471615128232
ONEWEB-0113             
1 48050U 21025J   23310.07217727  .00000052  00000+0  10803-3 0  9990
2 48050  87.8930 150.0967 0001327  74.4820 285.6456 13.13469987128334
ONEWEB-0112             
1 48051U 21025K   23309.83095795 -.00000193  00000+0 -56317-3 0  9990
2 48051  87.8995 150.1363 0001622  84.7897 275.3417 13.13470954128310
